OBJECT_NAME,OBJECT_ID,EPOCH,MEAN_MOTION,ECCENTRICITY,INCLINATION,RA_OF_ASC_NODE,ARG_OF_PERICENTER,MEAN_ANOMALY,EPHEMERIS_TYPE,CLASSIFICATION_TYPE,NORAD_CAT_ID,ELEMENT_SET_NO,REV_AT_EPOCH,BSTAR,MEAN_MOTION_DOT,MEAN_MOTION_DDOT
INTELSAT 906 (IS-906),2002-041A,2026-06-14T04:52:21.418752,1.00272354,.0004639,5.7955,72.9589,3.9186,322.8531,0,U,27513,999,8699,0,.17E-6,0
NIMIQ 2,2002-062A,2026-06-14T14:05:31.791264,1.00271654,.00053925,9.4403,56.9268,21.9706,286.1746,0,U,27632,999,4415,0,-.7E-6,0
USA 167,2003-008A,2026-06-14T08:26:37.504608,1.00273190,.00039002,10.9556,43.4344,310.8386,273.3349,0,U,27691,999,674,0,.2E-7,0
USA 169 (MILSTAR-2 4),2003-012A,2026-06-14T12:55:48.534816,1.00273338,.01005556,12.3453,29.8636,9.0742,209.9832,0,U,27711,999,3292,0,-.243E-5,0
ASIASAT 4,2003-014A,2026-06-14T14:08:46.095360,1.00270914,.00029945,4.6979,75.7801,12.4105,174.4324,0,U,27718,999,4527,0,-.219E-5,0
HELLAS-SAT 2,2003-020A,2026-06-13T23:22:17.048352,1.00271030,.00023741,7.3467,67.9221,19.5581,155.3544,0,U,27811,999,4281,0,-.81E-6,0
THURAYA-2,2003-026A,2026-06-14T06:28:16.882176,1.00272844,.00030943,8.8362,31.9913,9.7613,1.8874,0,U,27825,999,8432,0,.125E-5,0
OPTUS C1,2003-028B,2026-06-14T15:01:57.033120,1.00272526,.00054365,6.8833,69.4404,11.0882,203.6212,0,U,27831,999,5303,0,-.15E-5,0
USA 170,2003-040A,2026-06-13T21:54:11.772000,1.00267884,.0001881,10.4940,47.9796,61.5766,145.5156,0,U,27875,999,3296,0,.126E-5,0
GALAXY 13 (HORIZONS-1),2003-044A,2026-06-14T14:06:18.237312,1.00269853,.0002296,1.4129,83.8980,349.3005,251.2580,0,U,27954,999,4654,0,.138E-5,0
YAMAL 202,2003-053A,2026-06-14T13:53:04.504704,1.00271412,.00033384,6.3365,70.9690,2.6267,201.1330,0,U,28089,999,8267,0,-.78E-6,0
UFO 11 (USA 174),2003-057A,2026-06-14T03:02:21.600096,1.00274485,.00026411,8.9324,33.8445,52.1453,297.6344,0,U,28117,999,8241,0,-.104E-5,0
USA 176 (DSP 22),2004-004A,2026-06-11T23:21:41.975136,1.00406369,.0001239,12.0550,26.1076,290.9902,243.8917,0,U,28158,999,3288,0,-.286E-5,0
ABS-4 (MOBISAT-1),2004-007A,2026-06-14T04:57:21.688128,1.00272806,.00051891,6.0345,72.0444,9.1837,316.5810,0,U,28184,999,5230,0,.42E-6,0
INTELSAT 10-02,2004-022A,2026-06-14T14:48:44.168832,1.00270847,.0000208,0.0133,329.9129,229.7657,284.4073,0,U,28358,999,8053,0,-.4E-7,0
ANIK F2,2004-027A,2026-06-14T14:17:24.671616,1.00271308,.000399,3.2804,79.4810,7.0008,279.6348,0,U,28378,999,4123,0,-.45E-6,0
AMC-15,2004-041A,2026-06-14T14:19:09.505056,1.00271438,.00020917,0.0183,331.1618,123.9154,277.5678,0,U,28446,999,7927,0,-.82E-6,0
NSS-10,2005-003A,2026-06-14T03:56:03.462144,1.00270898,.00026488,6.4419,70.4896,2.3792,211.1685,0,U,28526,999,5312,0,-.248E-5,0
INMARSAT 4-F1,2005-009A,2026-06-14T13:10:06.640608,1.00271402,.00024586,5.1641,42.7548,41.5226,194.2174,0,U,28628,999,7764,0,.35E-6,0
DIRECTV 8,2005-019A,2026-06-14T14:15:09.887616,1.00271531,.00027744,0.0136,304.8908,142.7356,270.0007,0,U,28659,999,7704,0,.8E-7,0
GALAXY 28 (G-28),2005-022A,2026-06-14T09:33:21.526848,1.00271143,.00028701,3.2917,78.9679,3.2245,296.7451,0,U,28702,999,5194,0,-.195E-5,0
THAICOM 4,2005-028A,2026-06-14T13:55:29.553888,1.00270764,.00015971,0.2390,85.9384,347.6845,157.6308,0,U,28786,999,5222,0,-.355E-5,0
ANIK F1R,2005-036A,2026-06-14T14:05:11.400864,1.00270597,.00040045,4.3061,76.6109,359.4654,290.8231,0,U,28868,999,4642,0,-.72E-6,0
SYRACUSE 3A,2005-041B,2026-06-14T09:54:27.005184,1.00273878,.00030073,4.6359,75.8730,347.8968,34.2121,0,U,28885,999,7572,0,.133E-5,0
INMARSAT 4-F2,2005-044A,2026-06-14T13:47:20.540256,1.00270538,.00028071,5.0909,43.6998,34.0871,175.4125,0,U,28899,999,7549,0,-.258E-5,0
METEOSAT-9 (MSG-2),2005-049B,2026-06-13T20:12:48.957984,1.00270562,.00015434,9.3538,54.2002,346.3460,210.4526,0,U,28912,999,696,0,.126E-5,0
EUTELSAT 174A,2005-052A,2026-06-14T12:13:20.394912,1.00270581,.00061107,4.2128,76.5598,6.6342,176.9066,0,U,28924,999,5230,0,.12E-6,0
ECHOSTAR 10,2006-003A,2026-06-14T14:17:39.648192,1.00270530,.000144,0.0170,348.9931,68.7865,309.3358,0,U,28935,999,7443,0,-.48E-6,0
SPAINSAT,2006-007A,2026-06-14T08:30:17.108352,1.00270330,.0004622,0.5559,86.5750,355.4696,278.0102,0,U,28945,999,7418,0,-.209E-5,0
JCSAT-5A,2006-010A,2026-06-14T15:00:15.410304,1.00270124,.00018647,1.1029,84.2453,17.6446,158.1354,0,U,29045,999,7374,0,-.322E-5,0
ASTRA 1KR,2006-012A,2026-06-14T14:54:28.618848,1.00270232,.00032549,0.4673,83.1983,355.1376,67.1766,0,U,29055,999,4567,0,.125E-5,0
GALAXY 16 (G-16),2006-023A,2026-06-14T14:20:46.849344,1.00271357,.00024586,0.0087,291.7849,165.0817,282.2172,0,U,29236,999,7294,0,-.12E-5,0
