{"id":"27513","noradId":"27513","name":"INTELSAT 906 (IS-906)","line1":"1 27513U 02041A   26165.20302568  .00000017  00000+0  00000+0 0  9997","line2":"2 27513   5.7955  72.9589 0004639   3.9186 322.8531  1.00272354 86990","kind":"satellite","owner":"Commercial GEO","country":"ITSO","countryCode":"ITSO","objectType":"PAYLOAD","intlDesignator":"2002-041A","launchDate":"2002-09-06","rcs":"LARGE","rcsM2":22.2955,"periodMinutes":1436.09,"inclinationDeg":5.79,"apogeeKm":35806,"perigeeKm":35767,"source":"offline","sourceUrl":"https://celestrak.org/NORAD/elements/gp.php?GROUP=geo&FORMAT=tle","tleEpochUtc":"2026-06-14T04:52:21.418Z","orbitClass":"GEO"},{"id":"27632","noradId":"27632","name":"NIMIQ 2","line1":"1 27632U 02062A   26165.58717351 -.00000070  00000+0  00000+0 0  9993","line2":"2 27632   9.4403  56.9268 0005392  21.9706 286.1746  1.00271654 44156","kind":"satellite","owner":"CA","country":"CA","countryCode":"CA","objectType":"PAYLOAD","intlDesignator":"2002-062A","launchDate":"2002-12-29","rcs":"LARGE","rcsM2":111.2871,"periodMinutes":1436.1,"inclinationDeg":9.44,"apogeeKm":35809,"perigeeKm":35764,"source":"offline","sourceUrl":"https://celestrak.org/NORAD/elements/gp.php?GROUP=geo&FORMAT=tle","tleEpochUtc":"2026-06-14T14:05:31.791Z","orbitClass":"GEO"},{"id":"27691","noradId":"27691","name":"USA 167","line1":"1 27691U 03008A   26165.35182297  .00000002  00000+0  00000+0 0  9993","line2":"2 27691  10.9556  43.4344 0003900 310.8386 273.3349  1.00273190  6747","kind":"satellite","owner":"United States","country":"United States","countryCode":"US","objectType":"PAYLOAD","intlDesignator":"2003-008A","launchDate":"2003-03-11","periodMinutes":1436.08,"inclinationDeg":10.95,"apogeeKm":35802,"perigeeKm":35770,"source":"offline","sourceUrl":"https://celestrak.org/NORAD/elements/gp.php?GROUP=geo&FORMAT=tle","tleEpochUtc":"2026-06-14T08:26:37.504Z","orbitClass":"GEO"},{"id":"27711","noradId":"27711","name":"USA 169 (MILSTAR-2 4)","line1":"1 27711U 03012A   26165.53875619 -.00000243  00000+0  00000+0 0  9996","line2":"2 27711  12.3453  29.8636 0100555   9.0742 209.9832  1.00273338 32926","kind":"satellite","owner":"United States","country":"United States","countryCode":"US","objectType":"PAYLOAD","intlDesignator":"2003-012A","launchDate":"2003-04-08","periodMinutes":1436.07,"inclinationDeg":12.34,"apogeeKm":36210,"perigeeKm":35362,"source":"offline","sourceUrl":"https://celestrak.org/NORAD/elements/gp.php?GROUP=geo&FORMAT=tle","tleEpochUtc":"2026-06-14T12:55:48.534Z","orbitClass":"GEO"},{"id":"27718","noradId":"27718","name":"ASIASAT 4","line1":"1 27718U 03014A   26165.58942240 -.00000219  00000+0  00000+0 0  9998","line2":"2 27718   4.6979  75.7801 0002994  12.4105 174.4324  1.00270914 45274","kind":"satellite","owner":"AC","country":"AC","countryCode":"AC","objectType":"PAYLOAD","intlDesignator":"2003-014A","launchDate":"2003-04-12","rcs":"LARGE","rcsM2":25.1189,"periodMinutes":1436.11,"inclinationDeg":4.7,"apogeeKm":35799,"perigeeKm":35774,"source":"offline","sourceUrl":"https://celestrak.org/NORAD/elements/gp.php?GROUP=geo&FORMAT=tle","tleEpochUtc":"2026-06-14T14:08:46.095Z","orbitClass":"GEO"},{"id":"27811","noradId":"27811","name":"HELLAS-SAT 2","line1":"1 27811U 03020A   26164.97380843 -.00000081  00000+0  00000+0 0  9993","line2":"2 27811   7.3467  67.9221 0002374  19.5581 155.3544  1.00271030 42816","kind":"satellite","owner":"GREC","country":"GREC","countryCode":"GREC","objectType":"PAYLOAD","intlDesignator":"2003-020A","launchDate":"2003-05-13","rcs":"LARGE","rcsM2":15.8489,"periodMinutes":1436.11,"inclinationDeg":7.34,"apogeeKm":35797,"perigeeKm":35777,"source":"offline","sourceUrl":"https://celestrak.org/NORAD/elements/gp.php?GROUP=geo&FORMAT=tle","tleEpochUtc":"2026-06-13T23:22:17.048Z","orbitClass":"GEO"},{"id":"27825","noradId":"27825","name":"THURAYA-2","line1":"1 27825U 03026A   26165.26963984  .00000125  00000+0  00000+0 0  9998","line2":"2 27825   8.8362  31.9913 0003094   9.7613   1.8874  1.00272844 84324","kind":"satellite","owner":"UAE","country":"UAE","countryCode":"UAE","objectType":"PAYLOAD","intlDesignator":"2003-026A","launchDate":"2003-06-10","rcs":"LARGE","rcsM2":10.0237,"periodMinutes":1436.09,"inclinationDeg":8.83,"apogeeKm":35800,"perigeeKm":35773,"source":"offline","sourceUrl":"https://celestrak.org/NORAD/elements/gp.php?GROUP=geo&FORMAT=tle","tleEpochUtc":"2026-06-14T06:28:16.882Z","orbitClass":"GEO"},{"id":"27831","noradId":"27831","name":"OPTUS C1","line1":"1 27831U 03028B   26165.62635455 -.00000150  00000+0  00000+0 0  9995","line2":"2 27831   6.8833  69.4404 0005436  11.0882 203.6212  1.00272526 53038","kind":"satellite","owner":"AUS","country":"AUS","countryCode":"AUS","objectType":"PAYLOAD","intlDesignator":"2003-028B","launchDate":"2003-06-11","rcs":"LARGE","rcsM2":25.1188,"periodMinutes":1436.08,"inclinationDeg":6.88,"apogeeKm":35809,"perigeeKm":35763,"source":"offline","sourceUrl":"https://celestrak.org/NORAD/elements/gp.php?GROUP=geo&FORMAT=tle","tleEpochUtc":"2026-06-14T15:01:57.033Z","orbitClass":"GEO"},{"id":"27875","noradId":"27875","name":"USA 170","line1":"1 27875U 03040A   26164.91263625  .00000126  00000+0  00000+0 0  9996","line2":"2 27875  10.4940  47.9796 0001881  61.5766 145.5156  1.00267884 32963","kind":"satellite","owner":"United States","country":"United States","countryCode":"US","objectType":"PAYLOAD","intlDesignator":"2003-040A","launchDate":"2003-08-29","periodMinutes":1436.16,"inclinationDeg":10.49,"apogeeKm":35797,"perigeeKm":35778,"source":"offline","sourceUrl":"https://celestrak.org/NORAD/elements/gp.php?GROUP=geo&FORMAT=tle","tleEpochUtc":"2026-06-13T21:54:11.772Z","orbitClass":"GEO"},{"id":"27954","noradId":"27954","name":"GALAXY 13 (HORIZONS-1)","line1":"1 27954U 03044A   26165.58771108  .00000138  00000+0  00000+0 0  9995","line2":"2 27954   1.4129  83.8980 0002296 349.3005 251.2580  1.00269853 46541","kind":"satellite","owner":"United States","country":"United States","countryCode":"US","objectType":"PAYLOAD","intlDesignator":"2003-044A","launchDate":"2003-10-01","rcs":"LARGE","rcsM2":25.4101,"periodMinutes":1436.13,"inclinationDeg":1.41,"apogeeKm":35797,"perigeeKm":35778,"source":"offline","sourceUrl":"https://celestrak.org/NORAD/elements/gp.php?GROUP=geo&FORMAT=tle","tleEpochUtc":"2026-06-14T14:06:18.237Z","orbitClass":"GEO"},{"id":"28089","noradId":"28089","name":"YAMAL 202","line1":"1 28089U 03053A   26165.57852436 -.00000078  00000+0  00000+0 0  9992","line2":"2 28089   6.3365  70.9690 0003338   2.6267 201.1330  1.00271412 82674","kind":"satellite","owner":"Russia","country":"Russia","countryCode":"CIS","objectType":"PAYLOAD","intlDesignator":"2003-053A","launchDate":"2003-11-24","rcs":"LARGE","rcsM2":79.4328,"periodMinutes":1436.1,"inclinationDeg":6.33,"apogeeKm":35801,"perigeeKm":35772,"source":"offline","sourceUrl":"https://celestrak.org/NORAD/elements/gp.php?GROUP=geo&FORMAT=tle","tleEpochUtc":"2026-06-14T13:53:04.504Z","orbitClass":"GEO"},{"id":"28117","noradId":"28117","name":"UFO 11 (USA 174)","line1":"1 28117U 03057A   26165.12663889 -.00000104  00000+0  00000+0 0  9991","line2":"2 28117   8.9324  33.8445 0002641  52.1453 297.6344  1.00274485 82418","kind":"satellite","owner":"United States","country":"United States","countryCode":"US","objectType":"PAYLOAD","intlDesignator":"2003-057A","launchDate":"2003-12-18","rcs":"LARGE","rcsM2":10,"periodMinutes":1436.06,"inclinationDeg":8.93,"apogeeKm":35797,"perigeeKm":35775,"source":"offline","sourceUrl":"https://celestrak.org/NORAD/elements/gp.php?GROUP=geo&FORMAT=tle","tleEpochUtc":"2026-06-14T03:02:21.600Z","orbitClass":"GEO"},{"id":"28158","noradId":"28158","name":"USA 176 (DSP 22)","line1":"1 28158U 04004A   26162.97340249 -.00000286  00000+0  00000+0 0  9992","line2":"2 28158  12.0550  26.1076 0001239 290.9902 243.8917  1.00406369 32881","kind":"satellite","owner":"United States","country":"United States","countryCode":"US","objectType":"PAYLOAD","intlDesignator":"2004-004A","launchDate":"2004-02-14","periodMinutes":1434.17,"inclinationDeg":12.05,"apogeeKm":35754,"perigeeKm":35744,"source":"offline","sourceUrl":"https://celestrak.org/NORAD/elements/gp.php?GROUP=geo&FORMAT=tle","tleEpochUtc":"2026-06-11T23:21:41.975Z","orbitClass":"GEO"},{"id":"28184","noradId":"28184","name":"ABS-4 (MOBISAT-1)","line1":"1 28184U 04007A   26165.20650102  .00000042  00000+0  00000+0 0  9994","line2":"2 28184   6.0345  72.0444 0005189   9.1837 316.5810  1.00272806 52305","kind":"satellite","owner":"ABS","country":"ABS","countryCode":"ABS","objectType":"PAYLOAD","intlDesignator":"2004-007A","launchDate":"2004-03-13","rcs":"LARGE","rcsM2":10,"periodMinutes":1436.09,"inclinationDeg":6.03,"apogeeKm":35808,"perigeeKm":35765,"source":"offline","sourceUrl":"https://celestrak.org/NORAD/elements/gp.php?GROUP=geo&FORMAT=tle","tleEpochUtc":"2026-06-14T04:57:21.688Z","orbitClass":"GEO"},{"id":"28358","noradId":"28358","name":"INTELSAT 10-02","line1":"1 28358U 04022A   26165.61717788 -.00000004  00000+0  00000+0 0  9992","line2":"2 28358   0.0133 329.9129 0000208 229.7657 284.4073  1.00270847 80531","kind":"satellite","owner":"Commercial GEO","country":"ITSO","countryCode":"ITSO","objectType":"PAYLOAD","intlDesignator":"2004-022A","launchDate":"2004-06-16","rcs":"LARGE","rcsM2":21.2048,"periodMinutes":1436.13,"inclinationDeg":0.01,"apogeeKm":35788,"perigeeKm":35786,"source":"offline","sourceUrl":"https://celestrak.org/NORAD/elements/gp.php?GROUP=geo&FORMAT=tle","tleEpochUtc":"2026-06-14T14:48:44.168Z","orbitClass":"GEO"},{"id":"28378","noradId":"28378","name":"ANIK F2","line1":"1 28378U 04027A   26165.59542444 -.00000045  00000+0  00000+0 0  9996","line2":"2 28378   3.2804  79.4810 0003990   7.0008 279.6348  1.00271308 41233","kind":"satellite","owner":"CA","country":"CA","countryCode":"CA","objectType":"PAYLOAD","intlDesignator":"2004-027A","launchDate":"2004-07-18","rcs":"LARGE","rcsM2":36.6346,"periodMinutes":1436.1,"inclinationDeg":3.28,"apogeeKm":35804,"perigeeKm":35770,"source":"offline","sourceUrl":"https://celestrak.org/NORAD/elements/gp.php?GROUP=geo&FORMAT=tle","tleEpochUtc":"2026-06-14T14:17:24.671Z","orbitClass":"GEO"},{"id":"28446","noradId":"28446","name":"AMC-15","line1":"1 28446U 04041A   26165.59663779 -.00000082  00000+0  00000+0 0  9994","line2":"2 28446   0.0183 331.1618 0002091 123.9154 277.5678  1.00271438 79271","kind":"satellite","owner":"SES","country":"SES","countryCode":"SES","objectType":"PAYLOAD","intlDesignator":"2004-041A","launchDate":"2004-10-14","rcs":"LARGE","rcsM2":22.4085,"periodMinutes":1436.1,"inclinationDeg":0.02,"apogeeKm":35796,"perigeeKm":35778,"source":"offline","sourceUrl":"https://celestrak.org/NORAD/elements/gp.php?GROUP=geo&FORMAT=tle","tleEpochUtc":"2026-06-14T14:19:09.505Z","orbitClass":"GEO"},{"id":"28526","noradId":"28526","name":"NSS-10","line1":"1 28526U 05003A   26165.16392896 -.00000248  00000+0  00000+0 0  9998","line2":"2 28526   6.4419  70.4896 0002648   2.3792 211.1685  1.00270898 53126","kind":"satellite","owner":"SES","country":"SES","countryCode":"SES","objectType":"PAYLOAD","intlDesignator":"2005-003A","launchDate":"2005-02-03","rcs":"LARGE","rcsM2":9.5199,"periodMinutes":1436.11,"inclinationDeg":6.44,"apogeeKm":35798,"perigeeKm":35775,"source":"offline","sourceUrl":"https://celestrak.org/NORAD/elements/gp.php?GROUP=geo&FORMAT=tle","tleEpochUtc":"2026-06-14T03:56:03.462Z","orbitClass":"GEO"},{"id":"28628","noradId":"28628","name":"INMARSAT 4-F1","line1":"1 28628U 05009A   26165.54868797  .00000035  00000+0  00000+0 0  9990","line2":"2 28628   5.1641  42.7548 0002458  41.5226 194.2174  1.00271402 77643","kind":"satellite","owner":"IM","country":"IM","countryCode":"IM","objectType":"PAYLOAD","intlDesignator":"2005-009A","launchDate":"2005-03-11","rcs":"LARGE","rcsM2":5.0119,"periodMinutes":1436.1,"inclinationDeg":5.16,"apogeeKm":35797,"perigeeKm":35776,"source":"offline","sourceUrl":"https://celestrak.org/NORAD/elements/gp.php?GROUP=geo&FORMAT=tle","tleEpochUtc":"2026-06-14T13:10:06.640Z","orbitClass":"GEO"},{"id":"28659","noradId":"28659","name":"DIRECTV 8","line1":"1 28659U 05019A   26165.59386444  .00000008  00000+0  00000+0 0  9994","line2":"2 28659   0.0136 304.8908 0002774 142.7356 270.0007  1.00271531 77046","kind":"satellite","owner":"United States","country":"United States","countryCode":"US","objectType":"PAYLOAD","intlDesignator":"2005-019A","launchDate":"2005-05-22","rcs":"LARGE","rcsM2":16.6707,"periodMinutes":1436.11,"inclinationDeg":0.02,"apogeeKm":35799,"perigeeKm":35775,"source":"offline","sourceUrl":"https://celestrak.org/NORAD/elements/gp.php?GROUP=geo&FORMAT=tle","tleEpochUtc":"2026-06-14T14:15:09.887Z","orbitClass":"GEO"},{"id":"28702","noradId":"28702","name":"GALAXY 28 (G-28)","line1":"1 28702U 05022A   26165.39816582 -.00000195  00000+0  00000+0 0  9994","line2":"2 28702   3.2917  78.9679 0002870   3.2245 296.7451  1.00271143 51944","kind":"satellite","owner":"ITSO","country":"ITSO","countryCode":"ITSO","objectType":"PAYLOAD","intlDesignator":"2005-022A","launchDate":"2005-06-23","rcs":"LARGE","rcsM2":16.7962,"periodMinutes":1436.1,"inclinationDeg":3.29,"apogeeKm":35799,"perigeeKm":35775,"source":"offline","sourceUrl":"https://celestrak.org/NORAD/elements/gp.php?GROUP=geo&FORMAT=tle","tleEpochUtc":"2026-06-14T09:33:21.526Z","orbitClass":"GEO"},{"id":"28786","noradId":"28786","name":"THAICOM 4","line1":"1 28786U 05028A   26165.58020317 -.00000355  00000+0  00000+0 0  9994","line2":"2 28786   0.2390  85.9384 0001597 347.6845 157.6308  1.00270764 52221","kind":"satellite","owner":"THAI","country":"THAI","countryCode":"THAI","objectType":"PAYLOAD","intlDesignator":"2005-028A","launchDate":"2005-08-11","rcs":"LARGE","rcsM2":15.8677,"periodMinutes":1436.1,"inclinationDeg":0.24,"apogeeKm":35794,"perigeeKm":35780,"source":"offline","sourceUrl":"https://celestrak.org/NORAD/elements/gp.php?GROUP=geo&FORMAT=tle","tleEpochUtc":"2026-06-14T13:55:29.553Z","orbitClass":"GEO"},{"id":"28868","noradId":"28868","name":"ANIK F1R","line1":"1 28868U 05036A   26165.58693751 -.00000072  00000+0  00000+0 0  9998","line2":"2 28868   4.3061  76.6109 0004004 359.4654 290.8231  1.00270597 46423","kind":"satellite","owner":"CA","country":"CA","countryCode":"CA","objectType":"PAYLOAD","intlDesignator":"2005-036A","launchDate":"2005-09-08","rcs":"LARGE","rcsM2":12.5892,"periodMinutes":1436.11,"inclinationDeg":4.3,"apogeeKm":35804,"perigeeKm":35770,"source":"offline","sourceUrl":"https://celestrak.org/NORAD/elements/gp.php?GROUP=geo&FORMAT=tle","tleEpochUtc":"2026-06-14T14:05:11.400Z","orbitClass":"GEO"},{"id":"28885","noradId":"28885","name":"SYRACUSE 3A","line1":"1 28885U 05041B   26165.41281256  .00000133  00000+0  00000+0 0  9995","line2":"2 28885   4.6359  75.8730 0003007 347.8968  34.2121  1.00273878 75725","kind":"satellite","owner":"France","country":"France","countryCode":"FR","objectType":"PAYLOAD","intlDesignator":"2005-041B","launchDate":"2005-10-13","rcs":"LARGE","rcsM2":23.5772,"periodMinutes":1436.08,"inclinationDeg":4.63,"apogeeKm":35799,"perigeeKm":35773,"source":"offline","sourceUrl":"https://celestrak.org/NORAD/elements/gp.php?GROUP=geo&FORMAT=tle","tleEpochUtc":"2026-06-14T09:54:27.005Z","orbitClass":"GEO"},{"id":"28899","noradId":"28899","name":"INMARSAT 4-F2","line1":"1 28899U 05044A   26165.57454329 -.00000258  00000+0  00000+0 0  9992","line2":"2 28899   5.0909  43.6998 0002807  34.0871 175.4125  1.00270538 75496","kind":"satellite","owner":"IM","country":"IM","countryCode":"IM","objectType":"PAYLOAD","intlDesignator":"2005-044A","launchDate":"2005-11-08","rcs":"LARGE","rcsM2":4.4668,"periodMinutes":1436.1,"inclinationDeg":5.09,"apogeeKm":35799,"perigeeKm":35775,"source":"offline","sourceUrl":"https://celestrak.org/NORAD/elements/gp.php?GROUP=geo&FORMAT=tle","tleEpochUtc":"2026-06-14T13:47:20.540Z","orbitClass":"GEO"},{"id":"28912","noradId":"28912","name":"METEOSAT-9 (MSG-2)","line1":"1 28912U 05049B   26164.84223331  .00000126  00000+0  00000+0 0  9992","line2":"2 28912   9.3538  54.2002 0001543 346.3460 210.4526  1.00270562  6968","kind":"satellite","owner":"EUME","country":"EUME","countryCode":"EUME","objectType":"PAYLOAD","intlDesignator":"2005-049B","launchDate":"2005-12-21","rcs":"LARGE","rcsM2":2.0767,"periodMinutes":1436.12,"inclinationDeg":9.35,"apogeeKm":35794,"perigeeKm":35781,"source":"offline","sourceUrl":"https://celestrak.org/NORAD/elements/gp.php?GROUP=geo&FORMAT=tle","tleEpochUtc":"2026-06-13T20:12:48.957Z","orbitClass":"GEO"},{"id":"28924","noradId":"28924","name":"EUTELSAT 174A","line1":"1 28924U 05052A   26165.50926383  .00000012  00000+0  00000+0 0  9994","line2":"2 28924   4.2128  76.5598 0006110   6.6342 176.9066  1.00270581 52302","kind":"satellite","owner":"Commercial GEO","country":"EUTE","countryCode":"EUTE","objectType":"PAYLOAD","intlDesignator":"2005-052A","launchDate":"2005-12-29","rcs":"LARGE","rcsM2":5.4972,"periodMinutes":1436.12,"inclinationDeg":4.21,"apogeeKm":35813,"perigeeKm":35761,"source":"offline","sourceUrl":"https://celestrak.org/NORAD/elements/gp.php?GROUP=geo&FORMAT=tle","tleEpochUtc":"2026-06-14T12:13:20.394Z","orbitClass":"GEO"},{"id":"28935","noradId":"28935","name":"ECHOSTAR 10","line1":"1 28935U 06003A   26165.59559778 -.00000048  00000+0  00000+0 0  9992","line2":"2 28935   0.0170 348.9931 0001440  68.7865 309.3358  1.00270530 74430","kind":"satellite","owner":"United States","country":"United States","countryCode":"US","objectType":"PAYLOAD","intlDesignator":"2006-003A","launchDate":"2006-02-15","rcs":"LARGE","rcsM2":22.7066,"periodMinutes":1436.12,"inclinationDeg":0.02,"apogeeKm":35793,"perigeeKm":35781,"source":"offline","sourceUrl":"https://celestrak.org/NORAD/elements/gp.php?GROUP=geo&FORMAT=tle","tleEpochUtc":"2026-06-14T14:17:39.648Z","orbitClass":"GEO"},{"id":"28945","noradId":"28945","name":"SPAINSAT","line1":"1 28945U 06007A   26165.35436468 -.00000209  00000+0  00000+0 0  9990","line2":"2 28945   0.5559  86.5750 0004622 355.4696 278.0102  1.00270330 74183","kind":"satellite","owner":"SPN","country":"SPN","countryCode":"SPN","objectType":"PAYLOAD","intlDesignator":"2006-007A","launchDate":"2006-03-11","rcs":"LARGE","rcsM2":26.7038,"periodMinutes":1436.11,"inclinationDeg":0.55,"apogeeKm":35807,"perigeeKm":35767,"source":"offline","sourceUrl":"https://celestrak.org/NORAD/elements/gp.php?GROUP=geo&FORMAT=tle","tleEpochUtc":"2026-06-14T08:30:17.108Z","orbitClass":"GEO"},{"id":"29045","noradId":"29045","name":"JCSAT-5A","line1":"1 29045U 06010A   26165.62517836 -.00000322  00000+0  00000+0 0  9991","line2":"2 29045   1.1029  84.2453 0001864  17.6446 158.1354  1.00270124 73743","kind":"satellite","owner":"Japan (JAXA)","country":"Japan (JAXA)","countryCode":"JPN","objectType":"PAYLOAD","intlDesignator":"2006-010A","launchDate":"2006-04-12","rcs":"LARGE","rcsM2":19.9526,"periodMinutes":1436.11,"inclinationDeg":1.1,"apogeeKm":35795,"perigeeKm":35779,"source":"offline","sourceUrl":"https://celestrak.org/NORAD/elements/gp.php?GROUP=geo&FORMAT=tle","tleEpochUtc":"2026-06-14T15:00:15.410Z","orbitClass":"GEO"},{"id":"29055","noradId":"29055","name":"ASTRA 1KR","line1":"1 29055U 06012A   26165.62116457  .00000125  00000+0  00000+0 0  9998","line2":"2 29055   0.4673  83.1983 0003254 355.1376  67.1766  1.00270232 45671","kind":"satellite","owner":"Commercial GEO","country":"SES","countryCode":"SES","objectType":"PAYLOAD","intlDesignator":"2006-012A","launchDate":"2006-04-20","rcs":"LARGE","rcsM2":14.4313,"periodMinutes":1436.13,"inclinationDeg":0.46,"apogeeKm":35801,"perigeeKm":35773,"source":"offline","sourceUrl":"https://celestrak.org/NORAD/elements/gp.php?GROUP=geo&FORMAT=tle","tleEpochUtc":"2026-06-14T14:54:28.618Z","orbitClass":"GEO"},{"id":"29236","noradId":"29236","name":"GALAXY 16 (G-16)","line1":"1 29236U 06023A   26165.59776446 -.00000120  00000+0  00000+0 0  9993","line2":"2 29236   0.0087 291.7849 0002458 165.0817 282.2172  1.00271357 72948","kind":"satellite","owner":"United States","country":"United States","countryCode":"US","objectType":"PAYLOAD","intlDesignator":"2006-023A","launchDate":"2006-06-18","rcs":"LARGE","rcsM2":251.785,"periodMinutes":1436.11,"inclinationDeg":0.05,"apogeeKm":35797,"perigeeKm":35777,"source":"offline","sourceUrl":"https://celestrak.org/NORAD/elements/gp.php?GROUP=geo&FORMAT=tle","tleEpochUtc":"2026-06-14T14:20:46.849Z","orbitClass":"GEO"}